[{"OBJECT_NAME":"STARLINK-5261","OBJECT_ID":"2023-010H","EPOCH":"2026-03-09T22:31:03.912672","MEAN_MOTION":14.98328948,"ECCENTRICITY":0.00026707,"INCLINATION":70.0025,"RA_OF_ASC_NODE":23.9453,"ARG_OF_PERICENTER":253.2979,"MEAN_ANOMALY":106.7888,"EPHEMERIS_TYPE":0,"CLASSIFICATION_TYPE":"U","NORAD_CAT_ID":55276,"ELEMENT_SET_NO":999,"REV_AT_EPOCH":17330,"BSTAR":3.853512e-5,"MEAN_MOTION_DOT":3.67e-6,"MEAN_MOTION_DDOT":0},{"OBJECT_NAME":"HAWK-10B","OBJECT_ID":"2024-149CF","EPOCH":"2026-03-09T22:24:07.674624","MEAN_MOTION":14.96175068,"ECCENTRICITY":0.00063882,"INCLINATION":97.6865,"RA_OF_ASC_NODE":146.0046,"ARG_OF_PERICENTER":71.247,"MEAN_ANOMALY":288.9444,"EPHEMERIS_TYPE":0,"CLASSIFICATION_TYPE":"U","NORAD_CAT_ID":60545,"ELEMENT_SET_NO":999,"REV_AT_EPOCH":8514,"BSTAR":0.00020768682,"MEAN_MOTION_DOT":2.283e-5,"MEAN_MOTION_DDOT":0}]
